{
  "type": "FeatureCollection",
  "features": [
    { "type": "Feature", "properties": { "t_yr": 95.2 }, "geometry": { "type": "Point", "coordinates": [114.3, 22.4] } },
    { "type": "Feature", "properties": { "t_yr": 88.0 }, "geometry": { "type": "Point", "coordinates": [106.8, -6.2] } },
    { "type": "Feature", "properties": { "t_yr": 72.5 }, "geometry": { "type": "Point", "coordinates": [121.0, 14.6] } },
    { "type": "Feature", "properties": { "t_yr": 64.0 }, "geometry": { "type": "Point", "coordinates": [100.3, 13.7] } },
    { "type": "Feature", "properties": { "t_yr": 58.3 }, "geometry": { "type": "Point", "coordinates": [104.8, 11.5] } },
    { "type": "Feature", "properties": { "t_yr": 41.0 }, "geometry": { "type": "Point", "coordinates": [39.2, -6.8] } },
    { "type": "Feature", "properties": { "t_yr": 35.0 }, "geometry": { "type": "Point", "coordinates": [18.4, 54.4] } },
    { "type": "Feature", "properties": { "t_yr": 28.4 }, "geometry": { "type": "Point", "coordinates": [-38.5, -12.9] } },
    { "type": "Feature", "properties": { "t_yr": 22.0 }, "geometry": { "type": "Point", "coordinates": [77.2, 28.6] } },
    { "type": "Feature", "properties": { "t_yr": 18.5 }, "geometry": { "type": "Point", "coordinates": [90.4, 23.7] } },
    { "type": "Feature", "properties": { "t_yr": 15.0 }, "geometry": { "type": "Point", "coordinates": [80.2, 13.0] } },
    { "type": "Feature", "properties": { "t_yr": 12.0 }, "geometry": { "type": "Point", "coordinates": [96.1, 16.8] } },
    { "type": "Feature", "properties": { "t_yr": 9.5 }, "geometry": { "type": "Point", "coordinates": [125.5, 7.0] } },
    { "type": "Feature", "properties": { "t_yr": 6.2 }, "geometry": { "type": "Point", "coordinates": [29.9, 31.2] } },
    { "type": "Feature", "properties": { "t_yr": 4.0 }, "geometry": { "type": "Point", "coordinates": [51.3, 35.7] } },
    { "type": "Feature", "properties": { "t_yr": 2.5 }, "geometry": { "type": "Point", "coordinates": [72.8, 19.1] } },
    { "type": "Feature", "properties": { "t_yr": 1.2 }, "geometry": { "type": "Point", "coordinates": [103.8, 1.3] } },
    { "type": "Feature", "properties": { "t_yr": 0.5 }, "geometry": { "type": "Point", "coordinates": [8.2, 43.7] } }
  ]
}
